CCSDS_OMM_VERS = 2.0
CREATION_DATE  = 
ORIGINATOR     = 

OBJECT_NAME    = PROGRESS-MS 32
OBJECT_ID      = 2025-204A
CENTER_NAME    = EARTH
REF_FRAME      = TEME
TIME_SYSTEM    = UTC
MEAN_ELEMENT_THEORY = SGP/SGP4

EPOCH          = 2025-12-02T02:12:50.598720
MEAN_MOTION    = 15.49237019
ECCENTRICITY   = .00036389
INCLINATION    = 51.6314
RA_OF_ASC_NODE = 195.1903
ARG_OF_PERICENTER = 193.8265
MEAN_ANOMALY   = 166.2625

EPHEMERIS_TYPE = 0
CLASSIFICATION_TYPE = U
NORAD_CAT_ID   = 65586
ELEMENT_SET_NO = 999
REV_AT_EPOCH   = 27
BSTAR          = .17380747E-3
MEAN_MOTION_DOT = .9217E-4
MEAN_MOTION_DDOT = 0

CCSDS_OMM_VERS = 2.0
CREATION_DATE  = 
ORIGINATOR     = 

OBJECT_NAME    = CYGNUS NG-23
OBJECT_ID      = 2025-208A
CENTER_NAME    = EARTH
REF_FRAME      = TEME
TIME_SYSTEM    = UTC
MEAN_ELEMENT_THEORY = SGP/SGP4

EPOCH          = 2025-12-02T02:12:50.598720
MEAN_MOTION    = 15.49237019
ECCENTRICITY   = .00036389
INCLINATION    = 51.6314
RA_OF_ASC_NODE = 195.1903
ARG_OF_PERICENTER = 193.8265
MEAN_ANOMALY   = 166.2625

EPHEMERIS_TYPE = 0
CLASSIFICATION_TYPE = U
NORAD_CAT_ID   = 65616
ELEMENT_SET_NO = 999
REV_AT_EPOCH   = 22
BSTAR          = .17380747E-3
MEAN_MOTION_DOT = .9217E-4
MEAN_MOTION_DDOT = 0

CCSDS_OMM_VERS = 2.0
CREATION_DATE  = 
ORIGINATOR     = 

OBJECT_NAME    = DRAGONFLY
OBJECT_ID      = 1998-067XH
CENTER_NAME    = EARTH
REF_FRAME      = TEME
TIME_SYSTEM    = UTC
MEAN_ELEMENT_THEORY = SGP/SGP4

EPOCH          = 2025-12-02T19:24:02.227104
MEAN_MOTION    = 15.68060646
ECCENTRICITY   = .0006468
INCLINATION    = 51.6253
RA_OF_ASC_NODE = 186.4705
ARG_OF_PERICENTER = 216.4679
MEAN_ANOMALY   = 143.5877

EPHEMERIS_TYPE = 0
CLASSIFICATION_TYPE = U
NORAD_CAT_ID   = 65729
ELEMENT_SET_NO = 999
REV_AT_EPOCH   = 1160
BSTAR          = .12965E-2
MEAN_MOTION_DOT = .149213E-2
MEAN_MOTION_DDOT = 0

CCSDS_OMM_VERS = 2.0
CREATION_DATE  = 
ORIGINATOR     = 

OBJECT_NAME    = 1998-067XJ
OBJECT_ID      = 1998-067XJ
CENTER_NAME    = EARTH
REF_FRAME      = TEME
TIME_SYSTEM    = UTC
MEAN_ELEMENT_THEORY = SGP/SGP4

EPOCH          = 2025-12-02T19:46:01.269120
MEAN_MOTION    = 16.23931094
ECCENTRICITY   = .0010115
INCLINATION    = 51.6061
RA_OF_ASC_NODE = 180.4655
ARG_OF_PERICENTER = 256.3912
MEAN_ANOMALY   = 103.5981

EPHEMERIS_TYPE = 0
CLASSIFICATION_TYPE = U
NORAD_CAT_ID   = 65730
ELEMENT_SET_NO = 999
REV_AT_EPOCH   = 1168
BSTAR          = .22859E-2
MEAN_MOTION_DOT = .6330363E-1
MEAN_MOTION_DDOT = .11931E-4

CCSDS_OMM_VERS = 2.0
CREATION_DATE  = 
ORIGINATOR     = 

OBJECT_NAME    = 1998-067XK
OBJECT_ID      = 1998-067XK
CENTER_NAME    = EARTH
REF_FRAME      = TEME
TIME_SYSTEM    = UTC
MEAN_ELEMENT_THEORY = SGP/SGP4

EPOCH          = 2025-12-02T20:00:36.101088
MEAN_MOTION    = 15.63382318
ECCENTRICITY   = .0005863
INCLINATION    = 51.6285
RA_OF_ASC_NODE = 187.4006
ARG_OF_PERICENTER = 188.3266
MEAN_ANOMALY   = 171.7632

EPHEMERIS_TYPE = 0
CLASSIFICATION_TYPE = U
NORAD_CAT_ID   = 65731
ELEMENT_SET_NO = 999
REV_AT_EPOCH   = 1159
BSTAR          = .98553E-3
MEAN_MOTION_DOT = .93205E-3
MEAN_MOTION_DDOT = 0

CCSDS_OMM_VERS = 2.0
CREATION_DATE  = 
ORIGINATOR     = 

OBJECT_NAME    = RSP-03
OBJECT_ID      = 1998-067XL
CENTER_NAME    = EARTH
REF_FRAME      = TEME
TIME_SYSTEM    = UTC
MEAN_ELEMENT_THEORY = SGP/SGP4

EPOCH          = 2025-12-02T20:30:42.166944
MEAN_MOTION    = 15.65600923
ECCENTRICITY   = .0006827
INCLINATION    = 51.6273
RA_OF_ASC_NODE = 186.7826
ARG_OF_PERICENTER = 191.7215
MEAN_ANOMALY   = 168.3622

EPHEMERIS_TYPE = 0
CLASSIFICATION_TYPE = U
NORAD_CAT_ID   = 65732
ELEMENT_SET_NO = 999
REV_AT_EPOCH   = 1161
BSTAR          = .11616E-2
MEAN_MOTION_DOT = .12054E-2
MEAN_MOTION_DDOT = 0

CCSDS_OMM_VERS = 2.0
CREATION_DATE  = 
ORIGINATOR     = 

OBJECT_NAME    = GHS-01
OBJECT_ID      = 1998-067XM
CENTER_NAME    = EARTH
REF_FRAME      = TEME
TIME_SYSTEM    = UTC
MEAN_ELEMENT_THEORY = SGP/SGP4

EPOCH          = 2025-12-02T20:07:58.918368
MEAN_MOTION    = 15.70056093
ECCENTRICITY   = .0006994
INCLINATION    = 51.6280
RA_OF_ASC_NODE = 185.9293
ARG_OF_PERICENTER = 215.3541
MEAN_ANOMALY   = 144.6993

EPHEMERIS_TYPE = 0
CLASSIFICATION_TYPE = U
NORAD_CAT_ID   = 65733
ELEMENT_SET_NO = 999
REV_AT_EPOCH   = 1162
BSTAR          = .14391E-2
MEAN_MOTION_DOT = .180652E-2
MEAN_MOTION_DDOT = 0

CCSDS_OMM_VERS = 2.0
CREATION_DATE  = 
ORIGINATOR     = 

OBJECT_NAME    = BOTAN
OBJECT_ID      = 1998-067XP
CENTER_NAME    = EARTH
REF_FRAME      = TEME
TIME_SYSTEM    = UTC
MEAN_ELEMENT_THEORY = SGP/SGP4

EPOCH          = 2025-12-01T23:11:25.783296
MEAN_MOTION    = 15.60127991
ECCENTRICITY   = .00045427
INCLINATION    = 51.6290
RA_OF_ASC_NODE = 193.6047
ARG_OF_PERICENTER = 166.4057
MEAN_ANOMALY   = 193.7060

EPHEMERIS_TYPE = 0
CLASSIFICATION_TYPE = U
NORAD_CAT_ID   = 65942
ELEMENT_SET_NO = 999
REV_AT_EPOCH   = 818
BSTAR          = .11466978E-2
MEAN_MOTION_DOT = .95633E-3
MEAN_MOTION_DDOT = 0

CCSDS_OMM_VERS = 2.0
CREATION_DATE  = 
ORIGINATOR     = 

OBJECT_NAME    = HRC MONOBLOCK CAMERA
OBJECT_ID      = 1998-067XR
CENTER_NAME    = EARTH
REF_FRAME      = TEME
TIME_SYSTEM    = UTC
MEAN_ELEMENT_THEORY = SGP/SGP4

EPOCH          = 2025-12-02T19:26:12.959808
MEAN_MOTION    = 15.53170703
ECCENTRICITY   = .0004432
INCLINATION    = 51.6293
RA_OF_ASC_NODE = 190.9830
ARG_OF_PERICENTER = 144.6428
MEAN_ANOMALY   = 215.4856

EPHEMERIS_TYPE = 0
CLASSIFICATION_TYPE = U
NORAD_CAT_ID   = 66052
ELEMENT_SET_NO = 999
REV_AT_EPOCH   = 729
BSTAR          = .62502E-3
MEAN_MOTION_DOT = .39695E-3
MEAN_MOTION_DDOT = 0

CCSDS_OMM_VERS = 2.0
CREATION_DATE  = 
ORIGINATOR     = 

OBJECT_NAME    = HTV-X1
OBJECT_ID      = 2025-241A
CENTER_NAME    = EARTH
REF_FRAME      = TEME
TIME_SYSTEM    = UTC
MEAN_ELEMENT_THEORY = SGP/SGP4

EPOCH          = 2025-12-02T02:12:50.598720
MEAN_MOTION    = 15.49237019
ECCENTRICITY   = .00036389
INCLINATION    = 51.6314
RA_OF_ASC_NODE = 195.1903
ARG_OF_PERICENTER = 193.8265
MEAN_ANOMALY   = 166.2625

EPHEMERIS_TYPE = 0
CLASSIFICATION_TYPE = U
NORAD_CAT_ID   = 66174
ELEMENT_SET_NO = 999
REV_AT_EPOCH   = 51
BSTAR          = .17380747E-3
MEAN_MOTION_DOT = .9217E-4
MEAN_MOTION_DDOT = 0

